0 FENGYUN 1C DEB
1 29918U 99025HQ  13283.82099389  .00001827  00000-0  99437-3 0   960
2 29918 098.9105 245.1918 0019661 082.5512 335.4720 14.13401947346819
0 FENGYUN 1C DEB
1 29918U 99025HQ  13285.86804770  .00002130  00000-0  11551-2 0   973
2 29918 098.9098 247.2302 0019628 076.8293 311.3315 14.13406933347101
0 FENGYUN 1C DEB
1 29918U 99025HQ  13288.15367990  .00003256  00000-0  17524-2 0   983
2 29918 098.9103 249.5065 0019693 070.8889 060.7370 14.13417613347424
0 FENGYUN 1C DEB
1 29918U 99025HQ  13291.40667367  .00002351  00000-0  12717-2 0   991
2 29918 098.9114 252.7461 0019840 062.3783 052.3537 14.13435426347889
0 FENGYUN 1C DEB
1 29918U 99025HQ  13293.53078113  .00002736  00000-0  14755-2 0  1006
2 29918 098.9118 254.8618 0019890 056.8193 060.1682 14.13442646348182
0 FENGYUN 1C DEB
1 29918U 99025HQ  13295.85564683  .00003131  00000-0  16848-2 0  1011
2 29918 098.9119 257.1778 0019865 050.7925 009.4903 14.13453335348510
